capacity,city,facility_address1,facility_address2,facility_name,gps,latitude,longitude,owner_addr,owner_addr2,owner_city,owner_if_private,owner_phone,owner_state,owner_zip,phone_number,security,serialid,state,type,zip
,Columbiana,102 Industrial Parkway,P.O. Box 1970,ATEF,,,,35 Fairfield Place,,West Caldwell,"Community Education Centers, Inc. (CEC)",(973) 226-2900,NJ,07006,(205) 669-1187,,16,Alabama,Contract Facility,35051
,Uniontown,4805 Hwy 80 East,,Perry County Detention Facility,,,,100-D William O. Stutes Str.,,Lafayette,"LCS Corrections Service, Inc.",(337) 234-1533,LA,70506,(334) 628-8885,,17,Alabama,Contract Facility,36786
,Phoenix,3402 West Cocopah,,ASP - Phoenix West,,,,One Park Place,"621 NW 53rd Street, Suite 700",Boca Raton,"The GEO Group, Inc.",(866) 301-4436,Florida,33487,(602) 352-0350,,54,Arizona,Contract Facility,85009
,Marana,12610 W. Silverbell Rd,,Marana CCTF,,,,500 N. Market Place Drive,P.O. Box 10,Centerville,Management and Training Corporation,(801) 693-2600,Utah,84014,(520) 682-2077,,55,Arizona,Contract Facility,85653
,Florence,1401 East Diversion Dam Road,,Central ArizonaCorrectional Facility,,,,One Park Place,"621 NW 53rd Street, Suite 700",Boca Raton,"The GEO Group, Inc.",(866) 301-4436,Florida,33487,(520) 868-4809,,58,Arizona,Contract Facility,85132
"1,500",Eloy,1705 East Hanna Road,,Eloy Detention Center,,,,10 Burton Hills Boulevard,,Nashville,Corrections Corporation of America,(615) 263-3000,TN,37215,(520) 466-4141,medium,59,Arizona,Contract Facility,85131
"1,824",Florence,1100 Bowling Road,,Florence Correctional Center,,,,10 Burton Hills Boulevard,,Nashville,Corrections Corporation of America,(615) 263-3000,TN,37215,(520) 868-9095,multi-level,60,Arizona,Contract Facility,85132
"2,304",Florence,1155 North Pinal Parkway,,Central Arizona Detention Center,,,,10 Burton Hills Boulevard,,Nashville,Corrections Corporation of America,(615) 263-3000,TN,37215,(520) 868-3668,multi-level,61,Arizona,Contract Facility,85132
"3,060",Eloy,5501 North La Palma Road,,La Palma Correctional Center,,,,10 Burton Hills Boulevard,,Nashville,Corrections Corporation of America,(615) 263-3000,TN,37215,(520) 464-3200,medium,62,Arizona,Contract Facility,85131
"1,900",Eloy,1250 East Arica Road,,Saguaro Correctional Center,,,,10 Burton Hills Boulevard,,Nashville,Corrections Corporation of America,(615) 263-3000,TN,37215,(520) 464-0500,medium,63,Arizona,Contract Facility,85131
"1,596",Eloy,1750 East Arica Road,,Red Rock Correctional Center,,,,10 Burton Hills Boulevard,,Nashville,Corrections Corporation of America,(615) 263-3000,TN,37215,(520) 464-3800,medium,64,Arizona,Contract Facility,85131
"1,232",San Diego,446 Alta Rd,,San Diego Correctional Facility,,,,10 Burton Hills Boulevard,,Nashville,Corrections Corporation of America,(615) 263-3000,TN,37215,(619) 661-9119,minimum to medium,119,California,Contract Facility,92158
,San Diego,2727 Boston Avenue,,CAI - Boston Avenue,,,,10 Burton Hills Boulevard,,Nashville,Corrections Corporation of America,(615) 263-3000,TN,37215,(619) 232-1066,,120,California,Contract Facility,92113
,San Diego,551 South 35th Street,,CAI - Ocean View,,,,10 Burton Hills Boulevard,,Nashville,Corrections Corporation of America,(615) 263-3000,TN,37215,(619) 232-8600,,122,California,Contract Facility,92113
,McFarland,611 Frontage Road,,Golden State Medium Community Correctional Facility,,,,One Park Place,"621 NW 53rd Street, Suite 700",Boca Raton,"The GEO Group, Inc.",(866) 301-4436,Florida,33487,(661) 792-2731,,123,California,Contract Facility,93250
,McFarland,254 Taylor Avenue,,Central Valley MCCF,,,,One Park Place,"621 NW 53rd Street, Suite 700",Boca Raton,"The GEO Group, Inc.",(866) 301-4436,Florida,33487,(661) 792-2033,,124,California,Contract Facility,93250
,Adelanto,10400 Rancho Road,PO Box 6005,Adelanto Detention Facility East & West,,,,One Park Place,"621 NW 53rd Street, Suite 700",Boca Raton,"The GEO Group, Inc.",(866) 301-4436,Florida,33487,(760) 561-6100,,125,California,Contract Facility,92301
,Adelanto,10450 Rancho Rd,,Desert View MCCF,,,,One Park Place,"621 NW 53rd Street, Suite 700",Boca Raton,"The GEO Group, Inc.",(866) 301-4436,Florida,33487,(760) 246-1171,,126,California,Contract Facility,92301
"2,355",Taft,1500 Cadet Rd.,,Taft Correctional Institution,,,,500 N. Market Place Drive,P.O. Box 10,Centerville,Management and Training Corporation,(801) 693-2600,Utah,84014,(661) 763-2510,minimum,127,California,Contract Facility,93268
784,San Diego,220 West C Street,,Western Region Detention Facility at San Diego,,,,One Park Place,"621 NW 53rd Street, Suite 700",Boca Raton,"The GEO Group, Inc.",(866) 301-4436,Florida,33487,(619) 232-9221,maximum,128,California,Contract Facility,92101
,Colorado Springs,2925 E. Las Vegas Street,,CMRC - Cheyenne Mountain Re-entry Center,,,,35 Fairfield Place,,West Caldwell,"Community Education Centers, Inc. (CEC)",(973) 226-2900,NJ,07006,(719) 390-0125,,152,Colorado,Contract Facility,80906
752,Walsenburg,304 Ray Sandoval Street,,Huerfano County Correctional Center,,,,10 Burton Hills Boulevard,,Nashville,Corrections Corporation of America,(615) 263-3000,TN,37215,(719) 738-3246,medium,153,Colorado,Contract Facility,81089
,Burlington,49777 County Road V,,KCCC - Kit Carson Correctional Center,"39 18.200', -102 14.647'",39.3033333,-102.2441167,10 Burton Hills Boulevard,,Nashville,Corrections Corporation of America,(615) 263-3000,TN,37215,(719) 346-9450,,154,Colorado,Contract Facility,80807
,Aurora,3130 North Oakland Street,,Aurora Detention Facility,,,,One Park Place,"621 NW 53rd Street, Suite 700",Boca Raton,"The GEO Group, Inc.",(866) 301-4436,Florida,33487,(303) 361-6612,,155,Colorado,Contract Facility,80010
,Quincy,6044 Greensboro Highway,,Gadsden Correctional Facility (Female),,,,500 N. Market Place Drive,P.O. Box 10,Centerville,Management and Training Corporation,(801) 693-2600,Utah,84014,(850) 875-9701,,186,Florida,Contract Facility,32351-9100
,Graceville,5168 Ezell Rd.,,Graceville Correctional Facility (Male),,,,10 Burton Hills Boulevard,,Nashville,Corrections Corporation of America,(615) 263-3000,TN,37215,(850) 263-5500,,187,Florida,Contract Facility,32440
760,Lecanto,2604 W. Woodland Ridge Drive,,Citrus County Detention Facility,,,,10 Burton Hills Boulevard,,Nashville,Corrections Corporation of America,(615) 263-3000,TN,37215,(352) 527-3332,multi-level,188,Florida,Contract Facility,34461
,Lake City,7906 East Highway 90,,Lake City Correctional Facility (Male Youth),,,,10 Burton Hills Boulevard,,Nashville,Corrections Corporation of America,(615) 263-3000,TN,37215,(386) 755-3379,,207,Florida,Contract Facility,32055-6290
,Moore Haven,1282 Florida 78,,Moore Haven Correctional Facility (Male),,,,10 Burton Hills Boulevard,,Nashville,Corrections Corporation of America,(615) 263-3000,TN,37215,(863) 946-2420,,229,Florida,Contract Facility,33471
,South Bay,"600 U.S. Highway 27, South",,South Bay Correctional Facility (Male),,,,One Park Place,"621 NW 53rd Street, Suite 700",Boca Raton,"The GEO Group, Inc.",(866) 301-4436,Florida,33487,(561) 992-9505,,232,Florida,Contract Facility,33493-2233
"1,528",Nicholls,1153 North Liberty Street,P.O. Box 650,Coffee Correctional Facility,,,,10 Burton Hills Boulevard,,Nashville,Corrections Corporation of America,(615) 263-3000,TN,37215,(912) 345-5058 ext.25405,medium,336,Georgia,Contract Facility,31554
,Millen,34404 Kent Farm Drive,P.O. Box 948,Jenkins Facility,,,,10 Burton Hills Boulevard,,Nashville,Corrections Corporation of America,(615) 263-3000,TN,37215,(478) 982-6300,,337,Georgia,Contract Facility,30442
"1,691",McRae,1000 Jim Hammock Drive,,McRae Correctional Facility,,,,10 Burton Hills Boulevard,,Nashville,Corrections Corporation of America,(615) 263-3000,TN,37215,(229) 868-7778,medium,338,Georgia,Contract Facility,31055
,Folkston,3423 Highway 252,PO Box 2005,D. Ray James Detention Facility,,,,One Park Place,"621 NW 53rd Street, Suite 700",Boca Raton,"The GEO Group, Inc.",(866) 301-4436,Florida,33487,(912) 496-6905,,339,Georgia,Contract Facility,31537
,Folkston,3423 Highway 252,,D. Ray James Correctional Facility,,,,One Park Place,"621 NW 53rd Street, Suite 700",Boca Raton,"The GEO Group, Inc.",(866) 301-4436,Florida,33487,(912) 496-6242,,340,Georgia,Contract Facility,31537
489,Gainesville,622 Main Street,,North Georgia Detention Center,,,,10 Burton Hills Boulevard,,Nashville,Corrections Corporation of America,(615) 263-3000,TN,37215,(770) 533-7500,,341,Georgia,Contract Facility,30501
576,Lovejoy,11866 Hastings Bridge Road,PO Box 429,Robert A. Deyton Detention Facility,,,,One Park Place,"621 NW 53rd Street, Suite 700",Boca Raton,"The GEO Group, Inc.",(866) 301-4436,Florida,33487,(770) 305-8000,multiple,342,Georgia,Contract Facility,30250
,Milledgeville,196 Laying Farm Road,,Riverbend Correctional Facility,,,,One Park Place,"621 NW 53rd Street, Suite 700",Boca Raton,"The GEO Group, Inc.",(866) 301-4436,Florida,33487,(478)414-2300,,343,Georgia,Contract Facility,31061
"1,524",Alamo,195 North Broad Street,P.O. Box 466,Wheeler Correctional Facility,,,,10 Burton Hills Boulevard,,Nashville,Corrections Corporation of America,(615) 263-3000,TN,37215,(912) 568-1731,medium,345,Georgia,Contract Facility,30411
,Plainfield,501 W. Main Street,,Plainfield Short Term Offender Program (STOP),,,,One Park Place,"621 NW 53rd Street, Suite 700",Boca Raton,"The GEO Group, Inc.",(866) 301-4436,Florida,33487,(317) 839-7751,,438,Indiana,Contract Facility,46168
"2,416",New Castle,1000 Van Nuys Road,P.O. Box E,New Castle Correctional Facility,,,,One Park Place,"621 NW 53rd Street, Suite 700",Boca Raton,"The GEO Group, Inc.",(866) 301-4436,Florida,33487,(765) 593-0111,minimum to medium,441,Indiana,Contract Facility,47362
"1,030",Indianapolis,730 E. Washington Street,,Marion County Jail II,,,,10 Burton Hills Boulevard,,Nashville,Corrections Corporation of America,(615) 263-3000,TN,37215,(317) 266-0882,multi-level,442,Indiana,Contract Facility,46202
656,Wheelwright,Correctional Rd,P.O. Box 500,Otter Creek Correctional Center,,,,10 Burton Hills Boulevard,,Nashville,Corrections Corporation of America,(615) 263-3000,TN,37215,,minimum to medium,487,Kentucky,Contract Facility,41669
"1,538",Kinder,3751 Lauderdale Woodyard Road,,Allen Correctional Center,,,,One Park Place,"621 NW 53rd Street, Suite 700",Boca Raton,"The GEO Group, Inc.",(866) 301-4436,Florida,33487,(337) 639-2943,medium to maximum,488,Louisiana,Contract Facility,70648
,Grayson,701 Highway 845,,Caldwell Parish Detention Center,,,,100-D William O. Stutes Str.,,Lafayette,"LCS Corrections Service, Inc.",(337) 234-1533,LA,70506,(318) 649-2100,,490,Louisiana,Contract Facility,71435
,Newellton,500 Routh Street,,J.B. Evans Correctional Center,,,,100-D William O. Stutes Str.,,Lafayette,"LCS Corrections Service, Inc.",(337) 234-1533,LA,70506,(318) 467-3355,,499,Louisiana,Contract Facility,71357
690,Pine Prairie,1133 Hampton Dupre Road,,Pine Prairie Correctional Center,,,,100-D William O. Stutes Str.,,Lafayette,"LCS Corrections Service, Inc.",(337) 234-1533,LA,70506,(337) 599-2198,medium,500,Louisiana,Contract Facility,70576
964,Basile,3843 Stagg Avenue,,South Louisiana Correctional Center,,,,100-D William O. Stutes Str.,,Lafayette,"LCS Corrections Service, Inc.",(337) 234-1533,LA,70506,(337) 432-5493,medium,501,Louisiana,Contract Facility,70515
,Jena,830 Pinehill Road,,LaSalle Detention Facility,,,,One Park Place,"621 NW 53rd Street, Suite 700",Boca Raton,"The GEO Group, Inc.",(866) 301-4436,Florida,33487,(318) 992-7800,,503,Louisiana,Contract Facility,71342
"1,538",Atlanta,180 CCA Blvd.,,Winn Correctional Center,,,,10 Burton Hills Boulevard,,Nashville,Corrections Corporation of America,(615) 263-3000,TN,37215,(318) 628-3971,medium to mazimum,504,Louisiana,Contract Facility,71483
,Appleton,445 South Munsterman Street,,Prairie Correctional Facility - CLOSED,,,,10 Burton Hills Boulevard,,Nashville,Corrections Corporation of America,(615) 263-3000,TN,37215,,,610,Minnesota,Contract Facility,56208
"2,232",Natchez,20 Hobo Fork Road,,Adams County Correctional Center,,,,10 Burton Hills Boulevard,,Nashville,Corrections Corporation of America,(615) 263-3000,TN,37215,(601) 304-2500,,611,Mississippi,Contract Facility,39120
,Meridian,10641 Highway 80 East,,East Mississippi Correctional Facility,,,,500 N. Market Place Drive,P.O. Box 10,Centerville,Management and Training Corporation,(801) 693-2600,Utah,84014,(601) 485-5255,,630,Mississippi,Contract Facility,39307
"1,000",Holly Springs,833 West Street,,Marshall County Correctional Facility,,,,500 N. Market Place Drive,P.O. Box 10,Centerville,Management and Training Corporation,(801) 693-2600,Utah,84014,(662) 252-7111,medium,631,Mississippi,Contract Facility,38634
,Woodville,2999 US Highway 61 North,,Wilkinson County Correctional Center,,,,500 N. Market Place Drive,P.O. Box 10,Centerville,Management and Training Corporation,(801) 693-2600,Utah,84014,(601) 888-3199,,633,Mississippi,Contract Facility,39669
,Walnut Grove,1650 Mississippi 492,,Walnut Grove Correctional Facility,,,,500 N. Market Place Drive,P.O. Box 10,Centerville,Management and Training Corporation,(801) 693-2600,Utah,84014,(601) 253-2348,,634,Mississippi,Contract Facility,39189
,Pahrump,2190 East Mesquite Avenue,,Nevada Southern Detention Center,,,,10 Burton Hills Boulevard,,Nashville,Corrections Corporation of America,(615) 263-3000,TN,37215,(775) 751-4500,,680,Nevada,Contract Facility,89060
300,Elizabeth,625 Evans Street,,Elizabeth Detention Center,,,,10 Burton Hills Boulevard,,Nashville,Corrections Corporation of America,(615) 263-3000,TN,37215,(908) 352-3776,minimum,703,New Jersey,Contract Facility,07201
,Milan,2000 Cibola Loop,,Cibola County Correctional Center,,,,10 Burton Hills Boulevard,,Nashville,Corrections Corporation of America,(615) 263-3000,TN,37215,(505) 285-4900,,715,New Mexico,Contract Facility,87021
596,Grants,1700 East Old Highway 66,P.O. Box 800,New Mexico Women's Correctional Facility,,,,10 Burton Hills Boulevard,,Nashville,Corrections Corporation of America,(615) 263-3000,TN,37215,(505) 287-2941,multi-level,717,New Mexico,Contract Facility,87020
"1,355",Chaparral,10 McGregor Range Road,,Otero County Prison Facility,,,,500 N. Market Place Drive,P.O. Box 10,Centerville,Management and Training Corporation,(801) 693-2600,Utah,84014,(575) 824.4884,multi,722,New Mexico,Contract Facility,88081
,Jamaica,182-22 150th Avenue,,Queens Detention Facility,,,,10 Burton Hills Boulevard,,Nashville,Corrections Corporation of America,(615) 263-3000,TN,37215,(718) 553-5420,,765,New York,Contract Facility,11413
"1,359",Winton,145 Parker's Fishery Road,PO Box 840,Rivers Correctional Institution,,,,One Park Place,"621 NW 53rd Street, Suite 700",Boca Raton,"The GEO Group, Inc.",(866) 301-4436,Florida,33487,(252) 358-5200,minimum,831,North Carolina,Contract Facility,27986
,Youngstown,1507 Market Street,,CBCF - Mahoning CCA,,,,10 Burton Hills Boulevard,,Nashville,Corrections Corporation of America,(615) 263-3000,TN,37215,(330) 744-5143,,859,Ohio,Contract Facility,44507
"1,498",Conneaut,501 Thompson Road,,Lake Erie Correctional Institution,,,,10 Burton Hills Boulevard,,Nashville,Corrections Corporation of America,(615) 263-3000,TN,37215,(440) 599-4100,minimum to medium,861,Ohio,Contract Facility,44030-8668
,Marion,670 Marion-Williamsport Road,,North Central Correctional Complex,,,,500 N. Market Place Drive,P.O. Box 10,Centerville,Management and Training Corporation,(801) 693-2600,Utah,84014,(740) 387-7040,,862,Ohio,Contract Facility,43302
"1,032",Cushing,3200 S. Kings Highway,,Cimarron Correctional Facility,,,,10 Burton Hills Boulevard,,Nashville,Corrections Corporation of America,(615) 263-3000,TN,37215,(918) 225-3336,medium,891,Oklahoma,Contract Facility,74023
"1,010",Holdenville,6888 East 133rd Road,,Davis Correctional Facility,,,,10 Burton Hills Boulevard,,Nashville,Corrections Corporation of America,(615) 263-3000,TN,37215,(405) 379-6400,medium,892,Oklahoma,Contract Facility,74848-9033
"2,518",Lawton,8607 SE Flower Mound Road,,Lawton Correctional Facility,,,,One Park Place,"621 NW 53rd Street, Suite 700",Boca Raton,"The GEO Group, Inc.",(866) 301-4436,Florida,33487,(580) 351-2778,minimum to medium,893,Oklahoma,Contract Facility,73501
"2,400",Sayre,1605 East Main,,North Fork Correctional Facility,,,,10 Burton Hills Boulevard,,Nashville,Corrections Corporation of America,(615) 263-3000,TN,37215,(580) 928-8200,medium,895,Oklahoma,Contract Facility,73662
,Whiteville,2520 Union Spring Road,P.O. Box 549,Hardeman County Correctional Facility,,,,10 Burton Hills Boulevard,,Nashville,Corrections Corporation of America,(615) 263-3000,TN,37215,(731) 254-6000,,983,Tennessee,Contract Facility,38075
"1,092",Nashville,5115 Harding Place,,Metro-Davidson County Detention Facility,,,,10 Burton Hills Boulevard,,Nashville,Corrections Corporation of America,(615) 263-3000,TN,37215,(615) 831-7088,multi-level,984,Tennessee,Contract Facility,37211
918,Chattanooga,7609 Standifer Gap Rd,P.O. Box 23148,Silverdale Detention Facilities,,,,10 Burton Hills Boulevard,,Nashville,Corrections Corporation of America,(615) 263-3000,TN,37215,(423) 892-0921,multi-level,985,Tennessee,Contract Facility,37422
,Clifton,555 Forest Avenue,P.O. Box 279,South Central Correctional Facility,,,,10 Burton Hills Boulevard,,Nashville,Corrections Corporation of America,(615) 263-3000,TN,37215,(931) 676-5372,,992,Tennessee,Contract Facility,38425-0279
"1,536",Whiteville,1440 Union Spring Road,P.O. Box 679,Whiteville Correctional Facility,,,,10 Burton Hills Boulevard,,Nashville,Corrections Corporation of America,(615) 263-3000,TN,37215,(731) 254-9400,medium,997,Tennessee,Contract Facility,38075
"1,049",Bartlett,1018 Arnold Drive,,Bartlett State Jail,,,,10 Burton Hills Boulevard,,Nashville,Corrections Corporation of America,(615) 263-3000,TN,37215,(254) 527-3300,minimum to medium,999,Texas,Contract Facility,76511
"1,403",Eden,702 East Broadway,,Eden Detention Center,,,,10 Burton Hills Boulevard,,Nashville,Corrections Corporation of America,(615) 263-3000,TN,37215,(325) 869-2704,medium,1000,Texas,Contract Facility,76837
,Henderson,3900 West Loop 571 North,,James Bradshaw State Jail,,,,10 Burton Hills Boulevard,,Nashville,Corrections Corporation of America,(615) 263-3000,TN,37215,(903) 655-0880,,1003,Texas,Contract Facility,75653
520,Bridgeport,4000 North Tenth Street,,Bridgeport Correctional Center,,,,500 N. Market Place Drive,P.O. Box 10,Centerville,Management and Training Corporation,(801) 693-2600,Utah,84014,(940) 683-3010,minimum-medium,1004,Texas,Contract Facility,76426
200,Bridgeport,222 Lake Road,,Bridgeport Pre-Parole Transfer Facility,,,,500 N. Market Place Drive,P.O. Box 10,Centerville,Management and Training Corporation,(801) 693-2600,Utah,84014,(940) 683-2162,medium,1005,Texas,Contract Facility,76426
544,Falfurrias,901 County Road 201,,Brooks County Detention Center,,,,100-D William O. Stutes Str.,,Lafayette,"LCS Corrections Service, Inc.",(337) 234-1533,LA,70506,(361) 325-3340,,1006,Texas,Contract Facility,78355
,Robstown,4909 FM 2826,,Coastal Bend Detention Center,,,,100-D William O. Stutes Str.,,Lafayette,"LCS Corrections Service, Inc.",(337) 234-1533,LA,70506,(361) 767-3400,,1009,Texas,Contract Facility,78380
520,Cleveland,901 East Fifth Street,,Cleveland Correctional Center,,,,One Park Place,"621 NW 53rd Street, Suite 700",Boca Raton,"The GEO Group, Inc.",(866) 301-4436,Florida,33487,(281) 592-9559,minimum-medium,1012,Texas,Contract Facility,77328
518,Diboll,1604 South First Street,,Diboll Correctional Center,,,,500 N. Market Place Drive,P.O. Box 10,Centerville,Management and Training Corporation,(801) 693-2600,Utah,84014,(936) 829-2295,minimum to medium,1022,Texas,Contract Facility,75941
,Henderson,900 Industrial Drive,,East Texas Multi-Use Facility,,,,500 N. Market Place Drive,P.O. Box 10,Centerville,Management and Training Corporation,(801) 693-2600,Utah,84014,(903) 655-3300,,1025,Texas,Contract Facility,75652
990,LaVilla,1300 Highway 107,,East Hidalgo Detention Center,,,,100-D William O. Stutes Str.,,Lafayette,"LCS Corrections Service, Inc.",(337) 234-1533,LA,70506,(956) 262-4511,minimum to medium,1027,Texas,Contract Facility,78562
,Venus,1100 Hwy 1807,,"Sanders ""Sandy"" Estes Unit",,,,500 N. Market Place Drive,P.O. Box 10,Centerville,Management and Training Corporation,(801) 693-2600,Utah,84014,(972) 366-3334,,1030,Texas,Contract Facility,76084
"1,670",Post,805 North Avenue F,,Giles W. Dalby Correctional Facility,,,,500 N. Market Place Drive,P.O. Box 10,Centerville,Management and Training Corporation,(801) 693-2600,Utah,84014,(806) 495-2175,medium,1037,Texas,Contract Facility,79356
,Kyle,23001 IH-35,,Kyle Correctional Center,,,,500 N. Market Place Drive,P.O. Box 10,Centerville,Management and Training Corporation,(801) 693-2600,Utah,84014,(512) 268-0079,,1061,Texas,Contract Facility,78640
905,Houston,15850 Export Plaza Drive,,Houston Processing Center,,,,10 Burton Hills Boulevard,,Nashville,Corrections Corporation of America,(615) 263-3000,TN,37215,(281) 449-1481,medium,1064,Texas,Contract Facility,77032
,Jacksboro,1620 FM 3344,,John R. Lindsey State Jail,,,,10 Burton Hills Boulevard,,Nashville,Corrections Corporation of America,(615) 263-3000,TN,37215,(940) 567-2272,,1065,Texas,Contract Facility,76458
,Overton,8500 North FM 3053,,Billy Moore Correctional Center,,,,500 N. Market Place Drive,P.O. Box 10,Centerville,Management and Training Corporation,(801) 693-2600,Utah,84014,(903) 834-6186,,1076,Texas,Contract Facility,75684
,Taylor,1001 Welch Street,,T. Don Hutto Residential Center,,,,10 Burton Hills Boulevard,,Nashville,Corrections Corporation of America,(615) 263-3000,TN,37215,(512) 218-2400,,1103,Texas,Contract Facility,76574
,Raymondville,1695 South Buffalo Drive,,Willacy County State Jail,,,,10 Burton Hills Boulevard,,Nashville,Corrections Corporation of America,(615) 263-3000,TN,37215,(956) 689-4900,,1110,Texas,Contract Facility,78580
,Raymondville,1800 Industrial Drive,,Wiillacy Country Correctional Center,,,,500 N. Market Place Drive,P.O. Box 10,Centerville,Management and Training Corporation,(801) 693-2600,Utah,84014,(956) 689-9218,,1111,Texas,Contract Facility,78580
,Raymondville,1601 Buffalo Drive,,Wiillacy Country Regional Detention Facility,,,,500 N. Market Place Drive,P.O. Box 10,Centerville,Management and Training Corporation,(801) 693-2600,Utah,84014,(956) 689-5075,,1112,Texas,Contract Facility,78580
,Pecos,98 West County Road 204,PO Box 1560,Reeves County Detention Complex (R1&R2),,,,One Park Place,"621 NW 53rd Street, Suite 700",Boca Raton,"The GEO Group, Inc.",(866) 301-4436,Florida,33487,(432) 447-2926,,1119,Texas,Contract Facility,79772
,Big Spring,1701 Apron Drive,,Big Spring Correctional Center,,,,One Park Place,"621 NW 53rd Street, Suite 700",Boca Raton,"The GEO Group, Inc.",(866) 301-4436,Florida,33487,(432) 264-0060,,1121,Texas,Contract Facility,79720
,Pearsall,566 Veterans Drive,,South Texas Detention Complex,,,,One Park Place,"621 NW 53rd Street, Suite 700",Boca Raton,"The GEO Group, Inc.",(866) 301-4436,Florida,33487,(830) 334-2939,,1123,Texas,Contract Facility,78061
,Conroe,500 Hilbig Street,,Joe Corley Detention Facility,,,,One Park Place,"621 NW 53rd Street, Suite 700",Boca Raton,"The GEO Group, Inc.",(866) 301-4436,Florida,33487,(936) 521-4000,,1124,Texas,Contract Facility,77301
"1,500",Laredo,1001 San Rio Boulevard,,Rio Grande Detention Center,,,,One Park Place,"621 NW 53rd Street, Suite 700",Boca Raton,"The GEO Group, Inc.",(866) 301-4436,Florida,33487,(956) 718-4700,,1125,Texas,Contract Facility,78046
,Laredo,9998 S. Highway 83,,Webb County Detention Center,,,,10 Burton Hills Boulevard,,Nashville,Corrections Corporation of America,(615) 263-3000,TN,37215,(956) 723-1985,,1126,Texas,Contract Facility,78046
,Laredo,4702 E. Saunders,,Laredo Processing Center,,,,10 Burton Hills Boulevard,,Nashville,Corrections Corporation of America,(615) 263-3000,TN,37215,(956) 727-4118,,1127,Texas,Contract Facility,78041
"2,106",Mineral Wells,759 Heintzelman Road,,Mineral Wells Pre-Parole Transfer Facility,,,,10 Burton Hills Boulevard,,Nashville,Corrections Corporation of America,(615) 263-3000,TN,37215,(940) 325-6933,minimum,1128,Texas,Contract Facility,76067
688,San Antonio,218 South Laredo Street,,Central Texas Detention Facility,,,,One Park Place,"621 NW 53rd Street, Suite 700",Boca Raton,"The GEO Group, Inc.",(866) 301-4436,Florida,33487,(210) 227-5600,multi,1129,Texas,Contract Facility,78207
,Karnes City,810 Commerce Street,,Karnes County Correctional Center,,,,One Park Place,"621 NW 53rd Street, Suite 700",Boca Raton,"The GEO Group, Inc.",(866) 301-4436,Florida,33487,(830) 780-3525,,1130,Texas,Contract Facility,78118
,Karnes City,409 FM 1144,,Karnes County Civil Detention Center,,,,One Park Place,"621 NW 53rd Street, Suite 700",Boca Raton,"The GEO Group, Inc.",(866) 301-4436,Florida,33487,(830) 254-2000,,1131,Texas,Contract Facility,78118
"1,536",Lawrenceville,1607 Planters Road,,Lawrenceville Correctional Center,,,,One Park Place,"621 NW 53rd Street, Suite 700",Boca Raton,"The GEO Group, Inc.",(866) 301-4436,Florida,33487,(434) 848-9349,medium,1162,Virginia,Contract Facility,23868
"1,000",Tacoma,1623 East J Street,,Northwest Detention Center,,,,One Park Place,"621 NW 53rd Street, Suite 700",Boca Raton,"The GEO Group, Inc.",(866) 301-4436,Florida,33487,(253) 396-1611,minimum to medium,1189,Washington,Contract Facility,98421
"1,500",Washington,"1901 E Street, S.E.,",,Correctional Treatment Facility,,,,10 Burton Hills Boulevard,,Nashville,Corrections Corporation of America,(615) 263-3000,TN,37215,(202) 698-3000,medium,1191,Washington D.C.,Contract Facility,20003
,Florence,915 East Diversion Dam Road,,ASP - Florence West,,,,One Park Place,"621 NW 53rd Street, Suite 700",Boca Raton,"The GEO Group, Inc.",(866) 301-4436,Florida,33487,(520) 868-4251,,56,Arizona,Contract Facility,85132
,Golden Valley,4626 W. English Dr.,,ASP - Kingman,,,,500 N. Market Place Drive,P.O. Box 10,Centerville,Management and Training Corporation,(801) 693-2600,Utah,84014,(928) 565-2460,,57,Arizona,Contract Facility,86414
"2,650",California City,22844 Virginia Boulevard,,California City Correctional Center,,,,10 Burton Hills Boulevard,,Nashville,Corrections Corporation of America,(615) 263-3000,TN,37215,(760) 373-1764,medium,121,California,Contract Facility,93505
,Las Animas,11560 Road FF75,,BCCF - Bent County Correctional Facility,,,,10 Burton Hills Boulevard,,Nashville,Corrections Corporation of America,(615) 263-3000,TN,37215,(719) 456-2610,,150,Colorado,Contract Facility,81054
,Olney Springs,,,CCCF - Crowley County Correctional Facility,"38 9.406', -103 57.443'",38.1567667,-103.9573833,10 Burton Hills Boulevard,,Nashville,Corrections Corporation of America,(615) 263-3000,TN,37215,(719) 267-3548,,151,Colorado,Contract Facility,81062
,Panama City,5400 Bayline Drive,,Bay Correctional Facility (Male),,,,10 Burton Hills Boulevard,,Nashville,Corrections Corporation of America,(615) 263-3000,TN,37215,(850) 769-1455,,181,Florida,Contract Facility,32404-5492
,Milton,5914 Jeff Ates Road,,Blackwater River Correctional Facility (Male),,,,One Park Place,"621 NW 53rd Street, Suite 700",Boca Raton,"The GEO Group, Inc.",(866) 301-4436,Florida,33487,(850) 983-4100,,182,Florida,Contract Facility,32583
,Lumpkin,146 CCA Road,,Stewart Detention Center,,,,10 Burton Hills Boulevard,,Nashville,Corrections Corporation of America,(615) 263-3000,TN,37215,(229) 838-5000,,344,Georgia,Contract Facility,31815
,,,,Correctional Alternative Placement Program (CAPP),"43 27.706', -116 14.133'",43.4617667,-116.23555,500 N. Market Place Drive,P.O. Box 10,Centerville,Management and Training Corporation,(801) 693-2600,Utah,84014,(208) 336-9959,,376,Idaho,Contract Facility,
802,Leavenworth,100 Highway Terrace,,Leavenworth Detention Center,,,,10 Burton Hills Boulevard,,Nashville,Corrections Corporation of America,(615) 263-3000,TN,37215,(913) 727-3246,maximum,466,Kansas,Contract Facility,66048
826,St. Mary,95 Raywick Road,,Marion Adjustment Center,,,,10 Burton Hills Boulevard,,Nashville,Corrections Corporation of America,(615) 263-3000,TN,37215,(270) 692-9622,minimum,485,Kentucky,Contract Facility,40063
866,Beattyville,168 Lee Adjustment Center Drive,,Lee Adjustment Center,,,,10 Burton Hills Boulevard,,Nashville,Corrections Corporation of America,(615) 263-3000,TN,37215,(606) 464-2866,minimum to medium,486,Kentucky,Contract Facility,41311
"2,672",Tutwiler,,,Tallahatchie County Correctional Facility,"34 1.618', -90 26.727'",34.0269667,-90.44545,10 Burton Hills Boulevard,,Nashville,Corrections Corporation of America,(615) 263-3000,TN,37215,(622) 345-6567,medium,632,Mississippi,Contract Facility,38963
,Shelby,50 Crossroads Drive,,Crossroads Correctional Center,,,,10 Burton Hills Boulevard,,Nashville,Corrections Corporation of America,(615) 263-3000,TN,37215,(406) 434-7055,,657,Montana,Contract Facility,59474
625,Clayton,185 Dr. Michael Jenkins Road,,Northeast New Mexico Detention Facility,"36 26.129', -103 7.425'",36.4354833,-103.12375,One Park Place,"621 NW 53rd Street, Suite 700",Boca Raton,"The GEO Group, Inc.",(866) 301-4436,Florida,33487,(575) 374-4005,medium,712,New Mexico,Contract Facility,88415
,Estancia,209 County Road AO49,,Torrance County Detention Facility,,,,10 Burton Hills Boulevard,,Nashville,Corrections Corporation of America,(615) 263-3000,TN,37215,(505) 384-2711,,716,New Mexico,Contract Facility,87016
600,Santa Rosa,,PO Box 520,Guadalupe County Correctional Facility,"34 54.513', -104 42.182'",34.90855,-104.7030333,One Park Place,"621 NW 53rd Street, Suite 700",Boca Raton,"The GEO Group, Inc.",(866) 301-4436,Florida,33487,(575) 472-1001,multi,720,New Mexico,Contract Facility,
"1,200",Hobbs,,,Lea County Correctional Facility,"32 45.844', -103 13.454'",32.7640667,-103.2242333,One Park Place,"621 NW 53rd Street, Suite 700",Boca Raton,"The GEO Group, Inc.",(866) 301-4436,Florida,33487,(575) 392.4055,multi,723,New Mexico,Contract Facility,88244
,Spruce Pine,545 Amity Park Road,,Mountain View Correctional Institution,,,,10 Burton Hills Boulevard,,Nashville,Corrections Corporation of America,(615) 263-3000,TN,37215,(828) 766-2555,,816,North Carolina,Contract Facility,28777
"2,256",Youngstown,2240 Hubbard Road,,Northeast Ohio Correctional Center,,,,10 Burton Hills Boulevard,,Nashville,Corrections Corporation of America,(615) 263-3000,TN,37215,(330) 746-3777,medium,860,Ohio,Contract Facility,44505
"2,160",Watonga,,,Diamondback Correctional Facility,,35.8822833,-98.3965167,10 Burton Hills Boulevard,,Nashville,Corrections Corporation of America,,TN,37215,,medium,894,Oklahoma,Contract Facility,73772
,Philipsburg,555 GEO Drive,,Moshannon Valley Correctional Center,,,,One Park Place,"621 NW 53rd Street, Suite 700",Boca Raton,"The GEO Group, Inc.",(866) 301-4436,Florida,33487,(814) 768-1200,,931,Pennsylvania,Contract Facility,16866
600,Mason,6299 Finde Naifeh Jr. Drive,,West Tennessee Detention Facility,,,,10 Burton Hills Boulevard,,Nashville,Corrections Corporation of America,(615) 263-3000,TN,37215,(901) 294-3060,multi-level,995,Tennessee,Contract Facility,38049
,Lockhart,1400 Industrial Blvd,,Lockhart Correctional Facility,,,,One Park Place,"621 NW 53rd Street, Suite 700",Boca Raton,"The GEO Group, Inc.",(866) 301-4436,Florida,33487,(512) 398-3480,,1066,Texas,Contract Facility,78644
,Del Rio,253 FM 2523 Hamilton Lane,,Val Verde Correctional Facility,,,,One Park Place,"621 NW 53rd Street, Suite 700",Boca Raton,"The GEO Group, Inc.",(866) 301-4436,Florida,33487,(830) 778-0096,,1122,Texas,Contract Facility,78840
